OBJECT_NAME,OBJECT_ID,EPOCH,MEAN_MOTION,ECCENTRICITY,INCLINATION,RA_OF_ASC_NODE,ARG_OF_PERICENTER,MEAN_ANOMALY,EPHEMERIS_TYPE,CLASSIFICATION_TYPE,NORAD_CAT_ID,ELEMENT_SET_NO,REV_AT_EPOCH,BSTAR,MEAN_MOTION_DOT,MEAN_MOTION_DDOT
SKYSAT-C4,2016-058B,2026-06-18T14:59:14.824032,15.48622769,.0001508,96.9169,191.3364,136.3349,223.8022,0,U,41771,999,54569,.24524E-3,.13015E-3,0
SKYSAT-C5,2016-058C,2026-06-18T20:45:04.214304,15.34489399,.0000936,97.0465,210.4303,299.8082,60.3069,0,U,41772,999,54400,.18069E-3,.5962E-4,0
SKYSAT-C2,2016-058D,2026-06-18T19:36:05.224896,15.42100866,.0004569,97.0165,191.8504,67.4437,292.7294,0,U,41773,999,54530,.22904E-3,.9719E-4,0
SKYSAT-C3,2016-058E,2026-06-18T19:39:32.745600,15.52597634,.0001431,96.8999,200.6024,98.6663,261.4753,0,U,41774,999,54636,.30444E-3,.18637E-3,0
ALSAT-1B,2016-059C,2026-06-18T20:54:40.402080,14.72276846,.0008198,97.7744,178.5625,213.7519,146.3168,0,U,41785,999,52082,.9269E-4,.538E-5,0
PATHFINDER 1,2016-059E,2026-06-18T16:54:37.235232,14.67664631,.0027918,97.8166,168.9124,198.6291,161.3895,0,U,41787,999,51993,.84352E-4,.436E-5,0
SCATSAT 1,2016-059H,2026-06-18T18:27:01.048032,14.79528221,.0053444,98.1191,233.5512,242.2741,117.3043,0,U,41790,999,10182,.11655E-3,.835E-5,0
GOKTURK 1A,2016-073A,2026-06-18T21:17:54.237984,14.62775868,.0001442,98.1250,64.5357,74.9308,285.2054,0,U,41875,999,50907,.72016E-4,.321E-5,0
RESOURCESAT-2A,2016-074A,2026-06-18T19:55:42.295296,14.21616972,.0003314,98.7526,243.3215,80.7707,279.3845,0,U,41877,999,49453,.99227E-4,.173E-5,0
CARTOSAT-2D,2017-008A,2026-06-18T20:54:08.528256,15.19215209,.0003838,97.4100,229.1458,227.7364,132.3546,0,U,41948,999,51783,.1185E-3,.2427E-4,0
SENTINEL-2B,2017-013A,2026-06-18T19:34:52.349952,14.30817525,.0001182,98.5691,244.5675,87.9208,272.2111,0,U,42063,999,48487,.62775E-4,.121E-5,0
CARTOSAT-2E,2017-036C,2026-06-18T19:44:55.859136,15.19264948,.0002346,97.4269,229.5987,312.6028,47.5009,0,U,42767,999,49839,.16086E-3,.3324E-4,0
FORMOSAT-5,2017-049A,2026-06-18T18:38:51.561888,14.50899362,.0012665,98.2255,245.0514,79.9661,280.2963,0,U,42920,999,46690,.38575E-4,.109E-5,0
SENTINEL-5P,2017-064A,2026-06-18T18:03:42.296832,14.19519194,.000098,98.7925,111.8727,86.7365,273.3923,0,U,42969,999,44978,.36805E-4,.33E-6,0
SKYSAT-C11,2017-068A,2026-06-18T15:54:47.583936,15.57959535,.0000558,97.4361,318.5576,93.6594,266.4725,0,U,42987,999,48347,.29879E-3,.22267E-3,0
SKYSAT-C10,2017-068B,2026-06-18T19:00:31.985568,15.34660416,.0001121,97.4515,306.6543,98.9966,261.1404,0,U,42988,999,48260,.2228E-3,.7402E-4,0
SKYSAT-C9,2017-068C,2026-06-18T12:53:32.335584,15.41589461,.0009443,97.4435,307.3447,128.7314,231.4778,0,U,42989,999,48296,.25661E-3,.1072E-3,0
SKYSAT-C8,2017-068D,2026-06-18T15:08:16.246176,15.36999257,.0001449,97.4531,306.2968,95.3737,264.7672,0,U,42990,999,48253,.23496E-3,.8421E-4,0
SKYSAT-C7,2017-068E,2026-06-18T14:59:08.896128,15.36950162,.0007189,97.4542,307.2799,102.5841,257.6208,0,U,42991,999,48259,.23636E-3,.8465E-4,0
SKYSAT-C6,2017-068F,2026-06-18T15:31:29.350272,15.34231508,.0004503,97.4576,307.2670,133.8673,226.2942,0,U,42992,999,48254,.22843E-3,.749E-4,0
CARTOSAT-2F,2018-004A,2026-06-18T20:31:19.733664,15.19220506,.0000832,97.4778,229.4741,198.3056,161.8149,0,U,43111,999,46758,.73907E-4,.1488E-4,0
GAOFEN-1 02,2018-031A,2026-06-18T20:34:23.761344,14.76457262,.0003727,98.0524,232.3799,29.6659,330.4761,0,U,43259,999,44294,.43009E-4,.248E-5,0
GAOFEN-1 03,2018-031B,2026-06-18T20:02:54.615840,14.76471060,.0003705,98.0523,232.2163,75.7221,284.4400,0,U,43260,999,44293,.84137E-4,.534E-5,0
GAOFEN-1 04,2018-031D,2026-06-18T21:05:33.548928,14.76436662,.0002186,98.0525,232.4507,75.3774,284.7678,0,U,43262,999,44293,.11268E-3,.732E-5,0
SENTINEL-3B,2018-039A,2026-06-18T17:34:53.818176,14.26735105,.0000722,98.6249,237.2427,91.4594,268.6669,0,U,43437,999,42434,.49208E-4,.75E-6,0
GAOFEN-5 01,2018-043A,2026-06-18T18:35:04.339392,14.60606490,.0003022,98.4569,141.3938,80.6379,279.5162,0,U,43461,999,43192,.62731E-4,.256E-5,0
GAOFEN-6,2018-048A,2026-06-18T06:58:53.520672,14.76618754,.0011887,97.9439,232.0243,162.1664,197.9965,0,U,43484,999,43355,.3422E-3,.2342E-4,0
GAOFEN-11 01,2018-063A,2026-06-18T20:18:27.431712,15.55324277,.0002884,97.1289,236.7207,350.1037,10.0160,0,U,43585,999,44060,.13724E-3,.9213E-4,0
ICESAT-2,2018-070A,2026-06-18T19:00:29.471328,15.28306510,.0006083,92.0085,291.4125,103.5054,256.6873,0,U,43613,999,43270,.27084E-3,.7469E-4,0
HYSIS,2018-096A,2026-06-18T20:03:12.861792,14.78619520,.0001758,97.9837,236.5710,96.9938,263.1472,0,U,43719,999,40766,.70975E-4,.468E-5,0
KAZSTSAT,2018-099AB,2026-06-18T19:58:11.349984,14.99870780,.0008571,97.4270,201.6855,65.4622,294.7495,0,U,43783,999,41155,.11663E-3,.139E-4,0
