SKYSAT-C4               
1 41771U 16058B   26169.62447713  .00013015  00000+0  24524-3 0  9997
2 41771  96.9169 191.3364 0001508 136.3349 223.8022 15.48622769545690
SKYSAT-C5               
1 41772U 16058C   26169.86463211  .00005962  00000+0  18069-3 0  9994
2 41772  97.0465 210.4303 0000936 299.8082  60.3069 15.34489399544005
SKYSAT-C2               
1 41773U 16058D   26169.81672714  .00009719  00000+0  22904-3 0  9997
2 41773  97.0165 191.8504 0004569  67.4437 292.7294 15.42100866545300
SKYSAT-C3               
1 41774U 16058E   26169.81912900  .00018637  00000+0  30444-3 0  9999
2 41774  96.8999 200.6024 0001431  98.6663 261.4753 15.52597634546365
ALSAT-1B                
1 41785U 16059C   26169.87130095  .00000538  00000+0  92690-4 0  9998
2 41785  97.7744 178.5625 0008198 213.7519 146.3168 14.72276846520826
PATHFINDER 1            
1 41787U 16059E   26169.70459763  .00000436  00000+0  84352-4 0  9991
2 41787  97.8166 168.9124 0027918 198.6291 161.3895 14.67664631519934
SCATSAT 1               
1 41790U 16059H   26169.76876213  .00000835  00000+0  11655-3 0  9992
2 41790  98.1191 233.5512 0053444 242.2741 117.3043 14.79528221101827
GOKTURK 1A              
1 41875U 16073A   26169.88743331  .00000321  00000+0  72016-4 0  9998
2 41875  98.1250  64.5357 0001442  74.9308 285.2054 14.62775868509075
RESOURCESAT-2A          
1 41877U 16074A   26169.83035064  .00000173  00000+0  99227-4 0  9991
2 41877  98.7526 243.3215 0003314  80.7707 279.3845 14.21616972494538
CARTOSAT-2D             
1 41948U 17008A   26169.87093204  .00002427  00000+0  11850-3 0  9991
2 41948  97.4100 229.1458 0003838 227.7364 132.3546 15.19215209517836
SENTINEL-2B             
1 42063U 17013A   26169.81588368  .00000121  00000+0  62775-4 0  9992
2 42063  98.5691 244.5675 0001182  87.9208 272.2111 14.30817525484877
CARTOSAT-2E             
1 42767U 17036C   26169.82286874  .00003324  00000+0  16086-3 0  9997
2 42767  97.4269 229.5987 0002346 312.6028  47.5009 15.19264948498391
FORMOSAT-5              
1 42920U 17049A   26169.77698567  .00000109  00000+0  38575-4 0  9998
2 42920  98.2255 245.0514 0012665  79.9661 280.2963 14.50899362466901
SENTINEL-5P             
1 42969U 17064A   26169.75257288  .00000033  00000+0  36805-4 0  9997
2 42969  98.7925 111.8727 0000980  86.7365 273.3923 14.19519194449786
SKYSAT-C11              
1 42987U 17068A   26169.66305074  .00022267  00000+0  29879-3 0  9993
2 42987  97.4361 318.5576 0000558  93.6594 266.4725 15.57959535483473
SKYSAT-C10              
1 42988U 17068B   26169.79203687  .00007402  00000+0  22280-3 0  9998
2 42988  97.4515 306.6543 0001121  98.9966 261.1404 15.34660416482607
SKYSAT-C9               
1 42989U 17068C   26169.53717981  .00010720  00000+0  25661-3 0  9991
2 42989  97.4435 307.3447 0009443 128.7314 231.4778 15.41589461482965
SKYSAT-C8               
1 42990U 17068D   26169.63074359  .00008421  00000+0  23496-3 0  9998
2 42990  97.4531 306.2968 0001449  95.3737 264.7672 15.36999257482533
SKYSAT-C7               
1 42991U 17068E   26169.62440852  .00008465  00000+0  23636-3 0  9997
2 42991  97.4542 307.2799 0007189 102.5841 257.6208 15.36950162482597
SKYSAT-C6               
1 42992U 17068F   26169.64686748  .00007490  00000+0  22843-3 0  9992
2 42992  97.4576 307.2670 0004503 133.8673 226.2942 15.34231508482546
CARTOSAT-2F             
1 43111U 18004A   26169.85508951  .00001488  00000+0  73907-4 0  9998
2 43111  97.4778 229.4741 0000832 198.3056 161.8149 15.19220506467589
GAOFEN-1 02             
1 43259U 18031A   26169.85721946  .00000248  00000+0  43009-4 0  9995
2 43259  98.0524 232.3799 0003727  29.6659 330.4761 14.76457262442945
GAOFEN-1 03             
1 43260U 18031B   26169.83535435  .00000534  00000+0  84137-4 0  9996
2 43260  98.0523 232.2163 0003705  75.7221 284.4400 14.76471060442932
GAOFEN-1 04             
1 43262U 18031D   26169.87886052  .00000732  00000+0  11268-3 0  9990
2 43262  98.0525 232.4507 0002186  75.3774 284.7678 14.76436662442930
SENTINEL-3B             
1 43437U 18039A   26169.73256734  .00000075  00000+0  49208-4 0  9991
2 43437  98.6249 237.2427 0000722  91.4594 268.6669 14.26735105424345
GAOFEN-5 01             
1 43461U 18043A   26169.77435578  .00000256  00000+0  62731-4 0  9999
2 43461  98.4569 141.3938 0003022  80.6379 279.5162 14.60606490431927
GAOFEN-6                
1 43484U 18048A   26169.29089723  .00002342  00000+0  34220-3 0  9992
2 43484  97.9439 232.0243 0011887 162.1664 197.9965 14.76618754433558
GAOFEN-11 01            
1 43585U 18063A   26169.84615083  .00009213  00000+0  13724-3 0  9996
2 43585  97.1289 236.7207 0002884 350.1037  10.0160 15.55324277440604
ICESAT-2                
1 43613U 18070A   26169.79200777  .00007469  00000+0  27084-3 0  9995
2 43613  92.0085 291.4125 0006083 103.5054 256.6873 15.28306510432706
HYSIS                   
1 43719U 18096A   26169.83556553  .00000468  00000+0  70975-4 0  9991
2 43719  97.9837 236.5710 0001758  96.9938 263.1472 14.78619520407669
KAZSTSAT                
1 43783U 18099AB  26169.83207581  .00001390  00000+0  11663-3 0  9992
2 43783  97.4270 201.6855 0008571  65.4622 294.7495 14.99870780411558
